*******************************************************************************
Ephemeris / WWW_USER Mon Mar 10 07:38:13 2025 Pasadena, USA      / Horizons    
*******************************************************************************
Target body name: 584778 (2017 RG16)              {source: JPL#32}
Center body name: Earth (399)                     {source: DE441}
Center-site name: Mauna Kea
*******************************************************************************
Start time      : A.D. 2018-Dec-06 03:52:00.0000 UT      
Stop  time      : A.D. 2018-Dec-06 16:33:00.0000 UT      
Step-size       : 1 minutes
*******************************************************************************
Target pole/equ : undefined
Target radii    : undefined                                                    
Center geodetic : 204.5278, 19.8260847, 4.21024   {E-lon(deg),Lat(deg),Alt(km)}
Center cylindric: 204.5278, 6006.35451, 2151.0229 {E-lon(deg),Dxy(km),Dz(km)}
Center pole/equ : ITRF93                          {East-longitude positive}
Center radii    : 6378.137, 6378.137, 6356.752 km {Equator_a, b, pole_c}       
Target primary  : Sun
Vis. interferer : MOON (R_eq= 1737.400) km        {source: DE441}
Rel. light bend : Sun                             {source: DE441}
Rel. lght bnd GM: 1.3271E+11 km^3/s^2                                          
Small-body perts: Yes                             {source: SB441-N16}
Atmos refraction: NO (AIRLESS)
RA format       : HMS
Time format     : CAL 
Calendar mode   : Mixed Julian/Gregorian
RTS-only print  : NO       
EOP file        : eop.250307.p250603                                           
EOP coverage    : DATA-BASED 1962-JAN-20 TO 2025-MAR-07. PREDICTS-> 2025-JUN-02
Units conversion: 1 au= 149597870.700 km, c= 299792.458 km/s, 1 day= 86400.0 s 
Table cut-offs 1: Elevation (-90.0deg=NO ),Airmass (>38.000=NO), Daylight (YES)
Table cut-offs 2: Solar elongation (  0.0,180.0=NO ),Local Hour Angle( 0.0=NO )
Table cut-offs 3: RA/DEC angular rate (     0.0=NO )                           
*******************************************************************************
Initial IAU76/J2000 heliocentric ecliptic osculating elements (au, days, deg.):
  EPOCH=  2458734.5 ! 2019-Sep-08.00 (TDB)         Residual RMS= .14786        
   EC= .9085798704456644   QR= 7.106644157383132   TP= 2457926.6828443832      
   OM= .547367620295521    W=  323.0265763955561   IN= 74.86683883750447       
  Equivalent ICRF heliocentric cartesian coordinates (au, au/d):
   X= 8.360714527577798E+00  Y=-2.241293784086399E-01  Z= 2.069107023705337E+00
  VX= 1.416407206608659E-03 VY=-1.132497676729848E-03 VZ= 7.848232694960624E-03
Asteroid physical parameters (km, seconds, rotational period in hours):        
   GM= n.a.                RAD= n.a.               ROTPER= n.a.                
   H= 11.32                G= .150                 B-V= n.a.                   
                           ALBEDO= n.a.            STYP= n.a.                  
*******************************************************************************
 Date__(UT)__HR:MN     R.A._________(ICRF)_________DEC
******************************************************
$$SOE
 2018-Dec-06 07:58     23 36 25.703711 -03 45 00.86362
 2018-Dec-06 07:59     23 36 25.699143 -03 45 00.72387
 2018-Dec-06 08:00     23 36 25.694576 -03 45 00.58412
 2018-Dec-06 08:01     23 36 25.690010 -03 45 00.44437
 2018-Dec-06 08:02     23 36 25.685446 -03 45 00.30461
 2018-Dec-06 08:03     23 36 25.680882 -03 45 00.16485
 2018-Dec-06 08:04     23 36 25.676320 -03 45 00.02509
 2018-Dec-06 08:05     23 36 25.671760 -03 44 59.88533
 2018-Dec-06 08:06     23 36 25.667200 -03 44 59.74556
 2018-Dec-06 08:07     23 36 25.662642 -03 44 59.60580
 2018-Dec-06 08:08     23 36 25.658085 -03 44 59.46603
 2018-Dec-06 08:09     23 36 25.653530 -03 44 59.32626
 2018-Dec-06 08:10     23 36 25.648975 -03 44 59.18649
 2018-Dec-06 08:11     23 36 25.644422 -03 44 59.04671
 2018-Dec-06 08:12     23 36 25.639871 -03 44 58.90694
 2018-Dec-06 08:13     23 36 25.635320 -03 44 58.76716
 2018-Dec-06 08:14     23 36 25.630771 -03 44 58.62738
 2018-Dec-06 08:15     23 36 25.626223 -03 44 58.48760
 2018-Dec-06 08:16     23 36 25.621677 -03 44 58.34781
 2018-Dec-06 08:17     23 36 25.617132 -03 44 58.20803
 2018-Dec-06 08:18     23 36 25.612588 -03 44 58.06824
 2018-Dec-06 08:19     23 36 25.608045 -03 44 57.92845
 2018-Dec-06 08:20     23 36 25.603504 -03 44 57.78866
 2018-Dec-06 08:21     23 36 25.598964 -03 44 57.64887
 2018-Dec-06 08:22     23 36 25.594426 -03 44 57.50907
 2018-Dec-06 08:23     23 36 25.589889 -03 44 57.36927
 2018-Dec-06 08:24     23 36 25.585353 -03 44 57.22947
 2018-Dec-06 08:25     23 36 25.580818 -03 44 57.08967
 2018-Dec-06 08:26     23 36 25.576285 -03 44 56.94987
 2018-Dec-06 08:27     23 36 25.571753 -03 44 56.81007
 2018-Dec-06 08:28     23 36 25.567223 -03 44 56.67026
 2018-Dec-06 08:29     23 36 25.562694 -03 44 56.53045
 2018-Dec-06 08:30     23 36 25.558166 -03 44 56.39064
 2018-Dec-06 08:31     23 36 25.553640 -03 44 56.25083
 2018-Dec-06 08:32     23 36 25.549115 -03 44 56.11101
 2018-Dec-06 08:33     23 36 25.544591 -03 44 55.97120
 2018-Dec-06 08:34     23 36 25.540069 -03 44 55.83138
 2018-Dec-06 08:35     23 36 25.535548 -03 44 55.69156
 2018-Dec-06 08:36     23 36 25.531029 -03 44 55.55174
 2018-Dec-06 08:37     23 36 25.526511 -03 44 55.41191
 2018-Dec-06 08:38     23 36 25.521994 -03 44 55.27209
 2018-Dec-06 08:39     23 36 25.517479 -03 44 55.13226
 2018-Dec-06 08:40     23 36 25.512965 -03 44 54.99243
 2018-Dec-06 08:41     23 36 25.508452 -03 44 54.85260
 2018-Dec-06 08:42     23 36 25.503941 -03 44 54.71277
 2018-Dec-06 08:43     23 36 25.499432 -03 44 54.57293
 2018-Dec-06 08:44     23 36 25.494923 -03 44 54.43310
 2018-Dec-06 08:45     23 36 25.490417 -03 44 54.29326
 2018-Dec-06 08:46     23 36 25.485911 -03 44 54.15342
 2018-Dec-06 08:47     23 36 25.481407 -03 44 54.01358
 2018-Dec-06 08:48     23 36 25.476905 -03 44 53.87374
 2018-Dec-06 08:49     23 36 25.472404 -03 44 53.73389
 2018-Dec-06 08:50     23 36 25.467904 -03 44 53.59404
 2018-Dec-06 08:51     23 36 25.463406 -03 44 53.45419
 2018-Dec-06 08:52     23 36 25.458909 -03 44 53.31434
 2018-Dec-06 08:53     23 36 25.454414 -03 44 53.17449
 2018-Dec-06 08:54     23 36 25.449920 -03 44 53.03464
 2018-Dec-06 08:55     23 36 25.445427 -03 44 52.89478
 2018-Dec-06 08:56     23 36 25.440936 -03 44 52.75492
 2018-Dec-06 08:57     23 36 25.436447 -03 44 52.61506
 2018-Dec-06 08:58     23 36 25.431959 -03 44 52.47520
 2018-Dec-06 08:59     23 36 25.427472 -03 44 52.33534
 2018-Dec-06 09:00     23 36 25.422987 -03 44 52.19548
 2018-Dec-06 09:01     23 36 25.418504 -03 44 52.05561
 2018-Dec-06 09:02     23 36 25.414021 -03 44 51.91574
 2018-Dec-06 09:03     23 36 25.409541 -03 44 51.77587
 2018-Dec-06 09:04     23 36 25.405061 -03 44 51.63600
 2018-Dec-06 09:05     23 36 25.400584 -03 44 51.49613
 2018-Dec-06 09:06     23 36 25.396107 -03 44 51.35625
 2018-Dec-06 09:07     23 36 25.391633 -03 44 51.21638
 2018-Dec-06 09:08     23 36 25.387159 -03 44 51.07650
 2018-Dec-06 09:09     23 36 25.382688 -03 44 50.93662
 2018-Dec-06 09:10     23 36 25.378217 -03 44 50.79674
 2018-Dec-06 09:11     23 36 25.373749 -03 44 50.65685
 2018-Dec-06 09:12     23 36 25.369281 -03 44 50.51697
 2018-Dec-06 09:13     23 36 25.364815 -03 44 50.37708
 2018-Dec-06 09:14     23 36 25.360351 -03 44 50.23719
 2018-Dec-06 09:15     23 36 25.355888 -03 44 50.09730
 2018-Dec-06 09:16     23 36 25.351427 -03 44 49.95741
 2018-Dec-06 09:17     23 36 25.346967 -03 44 49.81752
 2018-Dec-06 09:18     23 36 25.342509 -03 44 49.67762
 2018-Dec-06 09:19     23 36 25.338053 -03 44 49.53773
 2018-Dec-06 09:20     23 36 25.333597 -03 44 49.39783
 2018-Dec-06 09:21     23 36 25.329144 -03 44 49.25793
 2018-Dec-06 09:22     23 36 25.324692 -03 44 49.11803
 2018-Dec-06 09:23     23 36 25.320241 -03 44 48.97812
 2018-Dec-06 09:24     23 36 25.315792 -03 44 48.83822
 2018-Dec-06 09:25     23 36 25.311344 -03 44 48.69831
 2018-Dec-06 09:26     23 36 25.306898 -03 44 48.55840
 2018-Dec-06 09:27     23 36 25.302454 -03 44 48.41850
 2018-Dec-06 09:28     23 36 25.298011 -03 44 48.27858
 2018-Dec-06 09:29     23 36 25.293570 -03 44 48.13867
 2018-Dec-06 09:30     23 36 25.289130 -03 44 47.99876
 2018-Dec-06 09:31     23 36 25.284692 -03 44 47.85884
 2018-Dec-06 09:32     23 36 25.280255 -03 44 47.71892
 2018-Dec-06 09:33     23 36 25.275820 -03 44 47.57901
 2018-Dec-06 09:34     23 36 25.271386 -03 44 47.43909
 2018-Dec-06 09:35     23 36 25.266954 -03 44 47.29916
 2018-Dec-06 09:36     23 36 25.262524 -03 44 47.15924
 2018-Dec-06 09:37     23 36 25.258095 -03 44 47.01931
 2018-Dec-06 09:38     23 36 25.253668 -03 44 46.87939
 2018-Dec-06 09:39     23 36 25.249242 -03 44 46.73946
 2018-Dec-06 09:40     23 36 25.244818 -03 44 46.59953
 2018-Dec-06 09:41     23 36 25.240395 -03 44 46.45960
 2018-Dec-06 09:42     23 36 25.235974 -03 44 46.31967
 2018-Dec-06 09:43     23 36 25.231554 -03 44 46.17973
 2018-Dec-06 09:44     23 36 25.227136 -03 44 46.03980
 2018-Dec-06 09:45     23 36 25.222720 -03 44 45.89986
 2018-Dec-06 09:46     23 36 25.218305 -03 44 45.75992
 2018-Dec-06 09:47     23 36 25.213892 -03 44 45.61998
 2018-Dec-06 09:48     23 36 25.209481 -03 44 45.48004
 2018-Dec-06 09:49     23 36 25.205071 -03 44 45.34010
 2018-Dec-06 09:50     23 36 25.200662 -03 44 45.20015
 2018-Dec-06 09:51     23 36 25.196255 -03 44 45.06021
 2018-Dec-06 09:52     23 36 25.191850 -03 44 44.92026
 2018-Dec-06 09:53     23 36 25.187447 -03 44 44.78031
 2018-Dec-06 09:54     23 36 25.183045 -03 44 44.64036
 2018-Dec-06 09:55     23 36 25.178644 -03 44 44.50041
 2018-Dec-06 09:56     23 36 25.174245 -03 44 44.36045
 2018-Dec-06 09:57     23 36 25.169848 -03 44 44.22050
 2018-Dec-06 09:58     23 36 25.165453 -03 44 44.08054
 2018-Dec-06 09:59     23 36 25.161059 -03 44 43.94059
 2018-Dec-06 10:00     23 36 25.156666 -03 44 43.80063
